STARLINK-1160
1 25082C 20006AQ  21325.05334479  .00002065  00000-0  13834-3 0  3253
2 25082  53.0516 112.9908 0001428  80.5063 310.1985 15.06392768    13
